CAS-2T & KS-1Q          
1 41847U 16066G   20277.39859406  .00000076  00000-0  22753-4 0  9991
2 41847  98.6424 328.9372 0364433 267.2183  88.7249 14.38094929204930
NAYIF-1 (EO-88)         
1 42017U 17008BX  20277.43756560  .00001948  00000-0  76706-4 0  9996
2 42017  97.3501 343.3845 0004679 310.3769  49.7061 15.26796088202021
MAX VALIER SAT          
1 42778U 17036P   20277.18043231  .00001209  00000-0  54569-4 0  9990
2 42778  97.2938 327.7800 0012266  11.7117 348.4402 15.22802472182122
RADFXSAT (FOX-1B)       
1 43017U 17073E   20277.16465430  .00000913  00000-0  75307-4 0  9999
2 43017  97.7151 185.2130 0257988  59.5220 303.1198 14.79040161155086
FOX-1D (AO-92)          
1 43137U 18004AC  20276.16491723  .00001513  00000-0  64768-4 0  9996
2 43137  97.4370 346.5639 0010267  48.2791 311.9323 15.24321557151298
DIWATA-2B               
1 43678U 18084H   20277.47535575 -.00000278  00000-0 -21880-4 0  9990
2 43678  97.8959  35.9479 0009928 171.7923 188.3453 14.91651889105125
ES'HAIL 2               
1 43700U 18090A   20276.80382931  .00000138  00000-0  00000-0 0  9995
2 43700   0.0117 132.6223 0002051  80.3424 114.1904  1.00273622  6787
FOX-1CLIFF (AO-95)      
1 43770U 18099N   20277.19937151  .00000516  00000-0  52302-4 0  9990
2 43770  97.6968 346.6549 0014363 191.6981 168.3908 14.95051702100018
ITASAT 1                
1 43786U 18099AE  20276.16847451  .00000137  00000-0  17566-4 0  9998
2 43786  97.6991 346.1392 0014902 188.6487 171.4479 14.95384621 99887
JY1SAT (JO-97)          
1 43803U 18099AX  20277.17357421 -.00000002  00000-0  50248-5 0  9990
2 43803  97.6949 346.9207 0014946 185.7093 174.3960 14.95574339100036
PSAT2 (NO-104)          
1 44354U 19036R   20277.45860540  .00009960  00000-0  14134-3 0  9999
2 44354  28.5303  30.3067 0356655  26.1911 335.6261 15.05473005 70094
BRICSAT2 (NO-103)       
1 44355U 19036S   20276.95540930  .00023101  00000-0  30984-3 0  9996
2 44355  28.5299  18.3480 0328615  45.6286 317.0742 15.12663558 70179
JAISAT-1                
1 44419U 19038F   20277.43284278  .00001168  00000-0  69608-4 0  9998
2 44419  97.5509 237.8413 0022948 116.4124 243.9465 15.12947978 68922
DUCHIFAT-3              
1 44854U 19089C   20277.13081523  .00000637  00000-0  57762-4 0  9990
2 44854  36.9661 181.9683 0008579 221.9192 138.0878 14.99144068 44468
RS-44 & BREEZE-KM R/B   
1 44909U 19096E   20277.09391137  .00000015  00000-0  19156-4 0  9994
2 44909  82.5167 283.7896 0216919 335.1323  23.9445 12.79708410 35956
ORBITAL FACTORY 2 (OF-2)
1 45113U 19071C   20277.20501574  .00003319  00000-0  11138-3 0  9997
2 45113  51.6429 202.8952 0013561  85.9675 274.2857 15.33749563 37660
HUSKYSAT-1              
1 45119U 19071J   20277.10393139  .00002020  00000-0  71917-4 0  9998
2 45119  51.6424 202.9703 0012873  82.3688 277.8755 15.33935143 37641
